[{"OBJECT_NAME":"ISIS 2","OBJECT_TYPE":"PAYLOAD","INTLDES":"71024A","TLE_LINE1":"1 05104U 71024A   16199.53760190  .00000014  00000-0  14054-4 0  9994","TLE_LINE2":"2 05104  88.1736 174.3098 0045379 107.4892  30.7633 12.67832459 96101"},{"OBJECT_NAME":"COSMOS 402","OBJECT_TYPE":"PAYLOAD","INTLDES":"71025A","TLE_LINE1":"1  5105U 71025A   16199.91834572 -.00000089 +00000-0 -31854-5 0  9996","TLE_LINE2":"2  5105 064.9818 098.9667 0047307 336.3188 096.8823 13.73037560270838"},{"OBJECT_NAME":"COSMOS 405","OBJECT_TYPE":"PAYLOAD","INTLDES":"71028A","TLE_LINE1":"1  5117U 71028A   16199.94220367 +.00002814 +00000-0 +92089-4 0  9998","TLE_LINE2":"2  5117 081.2626 030.7343 0010813 209.0234 267.0908 15.31283730461325"},{"OBJECT_NAME":"COSMOS 407","OBJECT_TYPE":"PAYLOAD","INTLDES":"71035A","TLE_LINE1":"1  5174U 71035A   16199.56133024 +.00000027 +00000-0 +19431-4 0  9994","TLE_LINE2":"2  5174 074.0436 248.4832 0019563 239.1467 120.7760 14.33168852361644"},{"OBJECT_NAME":"COSMOS 409","OBJECT_TYPE":"PAYLOAD","INTLDES":"71038A","TLE_LINE1":"1  5180U 71038A   16199.93419287 +.00000069 +00000-0 +22606-3 0  9996","TLE_LINE2":"2  5180 074.0014 065.8950 0023471 287.4360 171.3322 13.17756691175213"},{"OBJECT_NAME":"COSMOS 411","OBJECT_TYPE":"PAYLOAD","INTLDES":"71041A","TLE_LINE1":"1 05210U 71041A   16200.77814678 -.00000010  00000-0  32601-4 0  9996","TLE_LINE2":"2 05210  74.0126 194.4958 0112078 178.1113 234.4645 12.64935523 87239"},{"OBJECT_NAME":"COSMOS 412","OBJECT_TYPE":"PAYLOAD","INTLDES":"71041B","TLE_LINE1":"1  5211U 71041B   16199.90825743 -.00000033 +00000-0 -12924-3 0  9995","TLE_LINE2":"2  5211 074.0151 149.7166 0034968 027.3262 027.3815 12.39838208284728"},{"OBJECT_NAME":"COSMOS 413","OBJECT_TYPE":"PAYLOAD","INTLDES":"71041C","TLE_LINE1":"1  5212U 71041C   16199.88066751 -.00000023 +00000-0 -54287-4 0  9997","TLE_LINE2":"2  5212 074.0164 348.8691 0021379 172.6808 300.0702 12.43805123052195"},{"OBJECT_NAME":"COSMOS 414","OBJECT_TYPE":"PAYLOAD","INTLDES":"71041D","TLE_LINE1":"1  5213U 71041D   16199.93385703 +.00000009 +00000-0 +15907-3 0  9992","TLE_LINE2":"2  5213 074.0150 051.3372 0042383 129.3051 337.9517 12.51095629064243"},{"OBJECT_NAME":"COSMOS 415","OBJECT_TYPE":"PAYLOAD","INTLDES":"71041E","TLE_LINE1":"1  5214U 71041E   16199.46464553 +.00000001 +00000-0 +11653-3 0  9998","TLE_LINE2":"2  5214 074.0123 201.3065 0032281 325.2754 150.1332 12.47438860058306"},{"OBJECT_NAME":"COSMOS 416","OBJECT_TYPE":"PAYLOAD","INTLDES":"71041F","TLE_LINE1":"1  5215U 71041F   16199.90562689 -.00000025 +00000-0 -54426-4 0  9991","TLE_LINE2":"2  5215 074.0158 125.1713 0077168 153.8380 271.8487 12.58015402075475"},{"OBJECT_NAME":"COSMOS 417","OBJECT_TYPE":"PAYLOAD","INTLDES":"71041G","TLE_LINE1":"1 05216U 71041G   16200.86041359 -.00000027  00000-0 -58329-4 0  9994","TLE_LINE2":"2 05216  74.0167 342.7881 0095841 351.0242 122.4254 12.61394945 81494"},{"OBJECT_NAME":"COSMOS 418","OBJECT_TYPE":"PAYLOAD","INTLDES":"71041H","TLE_LINE1":"1  5217U 71041H   16199.62673168 -.00000013 +00000-0 +22632-4 0  9997","TLE_LINE2":"2  5217 074.0144 270.0057 0060548 322.7123 145.5756 12.54526644069750"},{"OBJECT_NAME":"COSMOS 422","OBJECT_TYPE":"PAYLOAD","INTLDES":"71046A","TLE_LINE1":"1  5238U 71046A   16199.92611725 +.00000004 +00000-0 +28380-4 0  9994","TLE_LINE2":"2  5238 074.0190 038.3531 0014108 070.4617 033.0653 13.72056902260781"},{"OBJECT_NAME":"RIGIDSPHERE 2 (LCS 4)","OBJECT_TYPE":"PAYLOAD","INTLDES":"71067E","TLE_LINE1":"1  5398U 71067E   16199.87854714 +.00000225 +00000-0 +73704-4 0  9990","TLE_LINE2":"2  5398 087.6220 258.4176 0061658 309.3843 050.1902 14.33455827354899"},{"OBJECT_NAME":"EOLE 1 (CAS-A)","OBJECT_TYPE":"PAYLOAD","INTLDES":"71071A","TLE_LINE1":"1 05435U 71071A   16200.13238567 -.00000002  00000-0  42650-4 0  9991","TLE_LINE2":"2 05435  50.1407 249.1441 0110682 336.1465  23.4357 14.54873901368954"},{"OBJECT_NAME":"SHINSEI (MS-F2)","OBJECT_TYPE":"PAYLOAD","INTLDES":"71080A","TLE_LINE1":"1 05485U 71080A   16200.70297347  .00000077  00000-0  89154-4 0  9991","TLE_LINE2":"2 05485  32.0571 286.6138 0640402 224.0683 130.7113 12.74116501 87422"},{"OBJECT_NAME":"COSMOS 444","OBJECT_TYPE":"PAYLOAD","INTLDES":"71086A","TLE_LINE1":"1 05547U 71086A   16199.83431230 -.00000023  00000-0 -37899-4 0  9990","TLE_LINE2":"2 05547  74.0301 334.5870 0119810 178.3116 295.7755 12.62076825 62406"},{"OBJECT_NAME":"COSMOS 445","OBJECT_TYPE":"PAYLOAD","INTLDES":"71086B","TLE_LINE1":"1  5548U 71086B   16199.95035470 -.00000021 +00000-0 -29181-4 0  9993","TLE_LINE2":"2  5548 074.0277 135.7365 0103105 007.4039 055.8806 12.58171089055750"},{"OBJECT_NAME":"COSMOS 446","OBJECT_TYPE":"PAYLOAD","INTLDES":"71086C","TLE_LINE1":"1  5549U 71086C   16199.71439484 -.00000017 +00000-0 -54749-5 0  9995","TLE_LINE2":"2  5549 074.0299 291.0926 0083476 187.4107 288.2320 12.54405505049639"},{"OBJECT_NAME":"COSMOS 447","OBJECT_TYPE":"PAYLOAD","INTLDES":"71086D","TLE_LINE1":"1 05550U 71086D   16200.11785616 -.00000008  00000-0  49725-4 0  9991","TLE_LINE2":"2 05550  74.0286  87.1846 0065917  11.8862  97.9900 12.50571101 43679"},{"OBJECT_NAME":"COSMOS 448","OBJECT_TYPE":"PAYLOAD","INTLDES":"71086E","TLE_LINE1":"1 05551U 71086E   16200.57285362  .00000011  00000-0  18528-3 0  9994","TLE_LINE2":"2 05551  74.0266 243.2742 0049123 201.3185 272.3425 12.46714594 37486"},{"OBJECT_NAME":"COSMOS 449","OBJECT_TYPE":"PAYLOAD","INTLDES":"71086F","TLE_LINE1":"1 05552U 71086F   16199.50144167  .00000004  00000-0  14576-3 0  9993","TLE_LINE2":"2 05552  74.0253 207.3124 0038040 266.2551 206.8001 12.38687725 24261"},{"OBJECT_NAME":"COSMOS 450","OBJECT_TYPE":"PAYLOAD","INTLDES":"71086G","TLE_LINE1":"1 05553U 71086G   16200.49568234  .00000008  00000-0  16930-3 0  9990","TLE_LINE2":"2 05553  74.0278  47.1275 0042591  53.4412 310.6843 12.42652382 30850"},{"OBJECT_NAME":"COSMOS 451","OBJECT_TYPE":"PAYLOAD","INTLDES":"71086H","TLE_LINE1":"1 05554U 71086H   16200.89091484 -.00000005  00000-0  78765-4 0  9996","TLE_LINE2":"2 05554  74.0284  21.5633 0052925 126.5276 338.5752 12.34265995 17218"},{"OBJECT_NAME":"OPS 4311 (DMSP 5B F1)","OBJECT_TYPE":"PAYLOAD","INTLDES":"71087A","TLE_LINE1":"1  5557U 71087A   16199.81539239 +.00000028 +00000-0 +30540-4 0  9997","TLE_LINE2":"2  5557 099.0191 108.1334 0050354 271.3307 088.2104 14.26982297323802"},{"OBJECT_NAME":"ASTEX 1","OBJECT_TYPE":"PAYLOAD","INTLDES":"71089A","TLE_LINE1":"1 05560U 71089A   16200.20476568  .00000129  00000-0  34932-4 0  9995","TLE_LINE2":"2 05560  92.7225  96.1800 0018285  64.4425 295.8667 14.47818519352807"},{"OBJECT_NAME":"PROSPERO (BLACK ARROW)","OBJECT_TYPE":"PAYLOAD","INTLDES":"71093A","TLE_LINE1":"1 05580U 71093A   16200.14467550  .00000476  00000-0  10158-3 0  9994","TLE_LINE2":"2 05580  82.0398 199.7559 0532432  78.8737 287.1791 13.93996856244413"},{"OBJECT_NAME":"OPS 9431 (DSCS 2-1)","OBJECT_TYPE":"PAYLOAD","INTLDES":"71095A","TLE_LINE1":"1 05587U 71095A   16200.44778350 -.00000117  00000-0  00000+0 0  9993","TLE_LINE2":"2 05587   9.9575 312.1029 0006152 226.4545 179.2527  1.00264676 85695"},{"OBJECT_NAME":"OPS 9432 (DSCS 2-2)","OBJECT_TYPE":"PAYLOAD","INTLDES":"71095B","TLE_LINE1":"1  5588U 71095B   16199.68237088 +.00000155 +00000-0 +00000-0 0  9997","TLE_LINE2":"2  5588 009.9154 312.4116 0002657 294.7750 324.8561 01.00360088011049"},{"OBJECT_NAME":"COSMOS 457","OBJECT_TYPE":"PAYLOAD","INTLDES":"71099A","TLE_LINE1":"1  5614U 71099A   16199.95424633 +.00000184 +00000-0 +53616-3 0  9991","TLE_LINE2":"2  5614 074.0348 034.6787 0023711 294.5325 172.3322 13.16031593145151"},{"OBJECT_NAME":"COSMOS 465","OBJECT_TYPE":"PAYLOAD","INTLDES":"71111A","TLE_LINE1":"1  5683U 71111A   16199.59135669 -.00000004 +00000-0 +19896-4 0  9995","TLE_LINE2":"2  5683 074.0258 194.7697 0027154 017.3351 122.0391 13.74152379235844"},{"OBJECT_NAME":"COSMOS 468","OBJECT_TYPE":"PAYLOAD","INTLDES":"71114A","TLE_LINE1":"1 05705U 71114A   16200.73370084  .00000024  00000-0  17358-4 0  9996","TLE_LINE2":"2 05705  74.0182  54.2985 0016235 249.7564 110.1843 14.35594244331879"},{"OBJECT_NAME":"INTELSAT 4-F3","OBJECT_TYPE":"PAYLOAD","INTLDES":"71116A","TLE_LINE1":"1 05709U 71116A   16199.15402012 -.00000273  00000-0  00000+0 0  9990","TLE_LINE2":"2 05709  13.7768 330.3981 0008028   7.6596 342.1695  0.99625972 82811"},{"OBJECT_NAME":"COSMOS 469","OBJECT_TYPE":"PAYLOAD","INTLDES":"71117A","TLE_LINE1":"1 05721U 71117A   16200.18587346 -.00000076  00000-0  14565-4 0  9992","TLE_LINE2":"2 05721  64.4881  57.3767 0050575 326.5730 171.0987 13.76011221239147"},{"OBJECT_NAME":"AUREOLE 1","OBJECT_TYPE":"PAYLOAD","INTLDES":"71119A","TLE_LINE1":"1 05729U 71119A   16200.54702399  .00002708  00000-0  21092-3 0  9994","TLE_LINE2":"2 05729  73.9583 144.3147 0812812   9.4750 352.0691 13.74057859141776"},{"OBJECT_NAME":"METEOR 1-10","OBJECT_TYPE":"PAYLOAD","INTLDES":"71120A","TLE_LINE1":"1  5731U 71120A   16199.87927764 -.00000046 +00000-0 -32088-4 0  9990","TLE_LINE2":"2  5731 081.2607 308.0759 0022585 255.2996 104.5672 14.11435499285229"},{"OBJECT_NAME":"INTELSAT 4-F4","OBJECT_TYPE":"PAYLOAD","INTLDES":"72003A","TLE_LINE1":"1 05775U 72003A   16200.75367505 -.00000251  00000-0  00000+0 0  9991","TLE_LINE2":"2 05775  13.8898 332.7155 0000919 207.8979 182.4404  0.99839169101256"},{"OBJECT_NAME":"COSMOS 475","OBJECT_TYPE":"PAYLOAD","INTLDES":"72009A","TLE_LINE1":"1 05846U 72009A   16200.88439008  .00000007  00000-0  30383-4 0  9998","TLE_LINE2":"2 05846  74.0487  24.4506 0022548  19.8261  80.3260 13.76134690229297"},{"OBJECT_NAME":"OPS 5058 (DMSP 5B F2)","OBJECT_TYPE":"PAYLOAD","INTLDES":"72018A","TLE_LINE1":"1  5903U 72018A   16199.75151607 +.00000019 +00000-0 +28266-4 0  9991","TLE_LINE2":"2  5903 099.0357 252.3547 0052484 071.6917 288.9960 14.23954411374666"},{"OBJECT_NAME":"COSMOS 480","OBJECT_TYPE":"PAYLOAD","INTLDES":"72019A","TLE_LINE1":"1 05905U 72019A   16200.58807935  .00000028  00000-0  37156-4 0  9998","TLE_LINE2":"2 05905  82.9731 201.2055 0017599 221.5347 276.6435 13.19845679134779"}]